ONEWEB-0029             
1 45445U 20020X   24165.04460245 -.00000335  00000+0 -98048-3 0  9993
2 45445  87.8960 167.1423 0002143  94.4792 265.6581 13.11417212206443
ONEWEB-0068             
1 45446U 20020Y   24164.94371283 -.00000194  00000+0 -58402-3 0  9998
2 45446  87.8957 167.1477 0002167  92.4713 267.6663 13.11413574206367
ONEWEB-0046             
1 45447U 20020Z   24164.94118368 -.00000039  00000+0 -14546-3 0  9991
2 45447  87.8957 167.1604 0001845  97.6319 262.5019 13.11414405206375
ONEWEB-0063             
1 45448U 20020AA  24164.74109907 -.00000198  00000+0 -59431-3 0  9997
2 45448  87.8960 167.2008 0001727  93.1173 267.0152 13.11420990206438
ONEWEB-0019             
1 45449U 20020AB  24164.94455978 -.00000163  00000+0 -49694-3 0  9994
2 45449  87.8959 167.1637 0001959  84.5776 275.5575 13.11416577206309
ONEWEB-0094             
1 45450U 20020AC  24164.90224492 -.00000203  00000+0 -55564-3 0  9995
2 45450  87.9162 152.0082 0002176  91.7227 268.4154 13.17649060209610
ONEWEB-0087             
1 45451U 20020AD  24164.75114622  .00000195  00000+0  51299-3 0  9991
2 45451  87.8954 167.1719 0002150  97.5680 262.5693 13.11418035206320
ONEWEB-0082             
1 45452U 20020AE  24164.74789599  .00000031  00000+0  52111-4 0  9996
2 45452  87.8960 167.1753 0002105  88.1796 271.9573 13.11418753206418
ONEWEB-0050             
1 45453U 20020AF  24164.62888073  .00003742  00000+0  38822-3 0  9995
2 45453  88.0031  29.3004 0005587  94.7250 265.4616 14.89734717230942
ONEWEB-0034             
1 45454U 20020AG  24164.92252661  .00000580  00000+0  16015-2 0  9993
2 45454  87.8957 167.1600 0002076  89.9732 270.1634 13.11417900206358
ONEWEB-0060             
1 45455U 20020AH  24164.72552169 -.00000655  00000+0 -19282-2 0  9992
2 45455  87.8960 167.2099 0001988  93.6692 266.4663 13.09846993206281
ONEWEB-0086             
1 45456U 20020AJ  24164.94796269 -.00000346  00000+0 -10112-2 0  9998
2 45456  87.8956 167.1561 0002352  98.6435 261.4959 13.11414876206373
ONEWEB-0088             
1 45457U 20020AK  24164.92591208  .00000910  00000+0  25302-2 0  9995
2 45457  87.8950 167.1259 0002376  89.1513 270.9887 13.11422918206304
ONEWEB-0102             
1 47258U 20100A   24165.19958144 -.00005704  00000+0 -15893-1 0  9992
2 47258  87.8937 136.8299 0002052  80.5255 279.6105 13.12475330168455
ONEWEB-0109             
1 47259U 20100B   24165.20771411 -.00002019  00000+0 -56471-2 0  9999
2 47259  87.8945 136.7928 0002183  78.2256 281.9118 13.12459886168282
ONEWEB-0110             
1 47260U 20100C   24165.15740865  .00005854  00000+0  16236-1 0  9996
2 47260  87.8925 136.8090 0002071  81.0349 279.1014 13.12404341168442
ONEWEB-0111             
1 47261U 20100D   24164.88329159 -.00007216  00000+0 -20097-1 0  9991
2 47261  87.8939 136.8589 0002008  83.2852 276.8505 13.12481898168243
ONEWEB-0114             
1 47262U 20100E   24164.91410509 -.00003081  00000+0 -85993-2 0  9999
2 47262  87.8925 136.8695 0001706  74.0756 286.0561 13.12457869168204
ONEWEB-0117             
1 47263U 20100F   24164.90598909 -.00003918  00000+0 -10927-1 0  9993
2 47263  87.8936 136.8454 0002088  84.9912 275.1455 13.12466749168217
ONEWEB-0118             
1 47264U 20100G   24164.93840825 -.00000179  00000+0 -53267-3 0  9996
2 47264  87.8935 136.8430 0001588  80.8748 279.2560 13.12445053168416
ONEWEB-0119             
1 47265U 20100H   24164.88977983 -.00006214  00000+0 -17312-1 0  9992
2 47265  87.8939 136.8911 0002012  84.7592 275.3766 13.12478316168387
ONEWEB-0120             
1 47266U 20100J   24164.91262401 -.00001078  00000+0 -30316-2 0  9992
2 47266  87.8940 136.8759 0002083  77.7880 282.3482 13.12461411168415
ONEWEB-0121             
1 47267U 20100K   24164.90112489 -.00004693  00000+0 -13083-1 0  9999
2 47267  87.8928 136.8695 0002110  84.3502 275.7868 13.12470614168326
ONEWEB-0122             
1 47268U 20100L   24164.89613665 -.00004899  00000+0 -13654-1 0  9992
2 47268  87.8930 136.8748 0002097  81.0970 279.0396 13.12473897168235
ONEWEB-0123             
1 47269U 20100M   24164.89138970 -.00006033  00000+0 -16808-1 0  9990
2 47269  87.8931 136.8900 0001884  84.0813 276.0530 13.12477594168379
ONEWEB-0124             
1 47270U 20100N   24164.88004536 -.00007783  00000+0 -21674-1 0  9991
2 47270  87.8936 136.8882 0002258  89.6506 270.4882 13.12485923168251
ONEWEB-0125             
1 47271U 20100P   24165.16226191  .00005673  00000+0  15733-1 0  9990
2 47271  87.8938 136.7917 0001738  92.8012 267.3315 13.12404585168354
ONEWEB-0126             
1 47272U 20100Q   24165.18742291 -.00006506  00000+0 -18124-1 0  9992
2 47272  87.8932 136.7926 0001861  82.0439 278.0901 13.12476589168421
ONEWEB-0127             
1 47273U 20100R   24165.14929436 -.00002068  00000+0 -57826-2 0  9999
2 47273  87.8939 136.8285 0002246  82.3192 277.8191 13.12457909168440
ONEWEB-0128             
1 47274U 20100S   24164.94329212 -.00000329  00000+0 -94890-3 0  9994
2 47274  87.8943 136.8728 0002393  83.6018 276.5382 13.12443347168430
ONEWEB-0129             
1 47275U 20100T   24165.15094232 -.00001355  00000+0 -38022-2 0  9994
2 47275  87.8936 136.7983 0001916  37.4106 322.7155 13.12448581168392
ONEWEB-0130             
1 47276U 20100U   24164.94977611 -.00008537  00000+0 -23769-1 0  9992
2 47276  87.8933 136.8455 0002379  82.7448 277.3951 13.12495912168334
ONEWEB-0131             
1 47277U 20100V   24165.17525205 -.00004364  00000+0 -12165-1 0  9999
2 47277  87.8937 136.8169 0002415  78.8636 281.2764 13.12479125168409
ONEWEB-0132             
1 47278U 20100W   24164.89950442 -.00004929  00000+0 -13737-1 0  9996
2 47278  87.8934 136.8729 0002116  91.8526 268.2845 13.12470864168260
ONEWEB-0133             
1 47279U 20100X   24164.91572914 -.00002661  00000+0 -74318-2 0  9998
2 47279  87.8930 136.8684 0002008  84.0320 276.1037 13.12457172168429
ONEWEB-0134             
1 47280U 20100Y   24164.88491058 -.00007107  00000+0 -19794-1 0  9991
2 47280  87.8926 136.8625 0002171  79.3785 280.7588 13.12480408168390
ONEWEB-0135             
1 47281U 20100Z   24165.16064104  .00005451  00000+0  15115-1 0  9993
2 47281  87.8937 136.8242 0002558  77.6473 282.4941 13.12411085168456
ONEWEB-0136             
1 47282U 20100AA  24164.87516781 -.00008070  00000+0 -22474-1 0  9992
2 47282  87.8937 136.8474 0002225  73.9407 286.1966 13.12485805168348
ONEWEB-0137             
1 47283U 20100AB  24164.90923710 -.00003407  00000+0 -95062-2 0  9994
2 47283  87.8929 136.8666 0001856  84.9227 275.2113 13.12463831168252
ONEWEB-0138             
1 47284U 20100AC  24165.19310157 -.00003397  00000+0 -94788-2 0  9994
2 47284  87.8928 136.8218 0002149  77.0239 283.1130 13.12468432168379
ONEWEB-0139             
1 47285U 20100AD  24164.93760482  .00003449  00000+0  95502-2 0  9997
2 47285  87.8937 136.8469 0002140  83.5276 276.6097 13.12421421168413
ONEWEB-0140             
1 47286U 20100AE  24164.88166310 -.00007507  00000+0 -20906-1 0  9998
2 47286  87.8933 136.8593 0002018  81.5168 278.6189 13.12485515168373
ONEWEB-0141             
1 47287U 20100AF  24164.92708579  .00000197  00000+0  51352-3 0  9990
2 47287  87.8931 136.8620 0001896  88.7218 271.4128 13.12442703168366
ONEWEB-0142             
1 47288U 20100AG  24164.89544547 -.00005361  00000+0 -14940-1 0  9990
2 47288  87.8934 136.8491 0001786  77.8889 282.2439 13.12474217168356
ONEWEB-0143             
1 47289U 20100AH  24165.15417747 -.00001594  00000+0 -44664-2 0  9993
2 47289  87.8933 136.8183 0002253  86.0708 274.0678 13.12452655168363
ONEWEB-0144             
1 47290U 20100AJ  24164.89788102 -.00005004  00000+0 -13945-1 0  9998
2 47290  87.8937 136.8526 0001916  73.7860 286.3479 13.12473999168254
ONEWEB-0145             
1 47291U 20100AK  24165.17364716 -.00004784  00000+0 -13334-1 0  9998
2 47291  87.8935 136.8217 0002113  77.2862 282.8503 13.12474817168485
ONEWEB-0146             
1 47292U 20100AL  24164.94165885 -.00000289  00000+0 -83951-3 0  9999
2 47292  87.8935 136.8514 0002277  95.5770 264.5618 13.12441069168362
ONEWEB-0147             
1 47293U 20100AM  24164.90761982 -.00004276  00000+0 -11924-1 0  9995
2 47293  87.8933 136.8524 0002132  81.4071 278.7299 13.12465947168251
ONEWEB-0115             
1 48042U 21025A   24164.89958081  .00000326  00000+0  85806-3 0  9993
2 48042  87.8922 106.3937 0002181  84.0605 276.0773 13.13470261157205
ONEWEB-0152             
1 48043U 21025B   24164.91227907  .00000274  00000+0  71574-3 0  9992
2 48043  87.8927 106.3885 0002135  82.3919 277.7452 13.13468949157168
ONEWEB-0153             
1 48044U 21025C   24164.89005467  .00000179  00000+0  45419-3 0  9998
2 48044  87.8929 106.3806 0002030  78.3084 281.8273 13.13470938157153
ONEWEB-0154             
1 48045U 21025D   24164.88688063  .00000068  00000+0  15125-3 0  9995
2 48045  87.8925 106.3928 0002116  79.6156 280.5212 13.13470716157113
ONEWEB-0116             
1 48046U 21025E   24164.85196700 -.00000056  00000+0 -18901-3 0  9999
2 48046  87.8928 106.3685 0002185  85.2033 274.9345 13.13469457157259
ONEWEB-0150             
1 48047U 21025F   24164.90275404  .00000322  00000+0  84598-3 0  9994
2 48047  87.8922 106.3777 0001943  78.7052 281.4296 13.13469806157150
ONEWEB-0107             
1 48048U 21025G   24164.90433442  .00000395  00000+0  10477-2 0  9997
2 48048  87.8922 106.3751 0001799  74.7286 285.4042 13.13469772157130
ONEWEB-0101             
1 48049U 21025H   24164.86782276 -.00000292  00000+0 -83551-3 0  9997
2 48049  87.8929 106.3985 0002141  78.1560 281.9809 13.13468801157103
ONEWEB-0113             
1 48050U 21025J   24164.92179152  .00000117  00000+0  28439-3 0  9997
2 48050  87.8928 106.3698 0002177  83.7571 276.3806 13.13470003157199
ONEWEB-0112             
1 48051U 21025K   24164.90909945  .00000262  00000+0  68158-3 0  9990
2 48051  87.8923 106.3720 0001973  81.5714 278.5639 13.13469876157205
